NORAD_CAT_ID,OBJECT_NAME,OBJECT_TYPE,EPOCH,MEAN_MOTION,ECCENTRICITY,INCLINATION,RA_OF_ASC_NODE,ARG_OF_PERICENTER,MEAN_ANOMALY,BSTAR,MEAN_MOTION_DOT,MEAN_MOTION_DDOT,TLE_LINE0,TLE_LINE1,TLE_LINE2,SEMIMAJOR_AXIS,PERIOD,APOGEE,PERIGEE,DECAYED
53567.0,STARLINK-4585,PAYLOAD,2024-07-25 08:53:45,15.08849626,0.0001442,53.2163,193.2465,99.7328,260.3827,9.5757e-05,1.237e-05,0.0,0 STARLINK-4585,1 53567U 22101AS  24207.37066847  .00001237  00000-0  95757-4 0  9998,2 53567  53.2163 193.2465 0001442  99.7328 260.3827 15.08849626107024,6917.851,95.437,540.714,538.718,0.0
53567.0,STARLINK-4585,PAYLOAD,2024-07-26 03:58:24,15.08834567,0.0001455,53.2167,189.678,91.6655,268.4504,3.4634e-05,2.63e-06,0.0,0 STARLINK-4585,1 53567U 22101AS  24208.16556032  .00000263  00000-0  34634-4 0  9991,2 53567  53.2167 189.6780 0001455  91.6655 268.4504 15.08834567107147,6917.897,95.438,540.769,538.755,0.0
53567.0,STARLINK-4585,PAYLOAD,2024-07-26 08:44:33,15.0883724,0.0001448,53.2163,188.7853,89.9558,270.16,5.2779e-05,5.52e-06,0.0,0 STARLINK-4585,1 53567U 22101AS  24208.36427846  .00000552  00000-0  52779-4 0  9994,2 53567  53.2163 188.7853 0001448  89.9558 270.1600 15.08837240107179,6917.889,95.438,540.756,538.752,0.0
53567.0,STARLINK-4585,PAYLOAD,2024-07-26 23:03:01,15.08841436,0.0001496,53.2165,186.1069,96.9954,263.1208,1.1635e-05,-1.03e-06,0.0,0 STARLINK-4585,1 53567U 22101AS  24208.96043672 -.00000103  00000-0  11635-4 0  9990,2 53567  53.2165 186.1069 0001496  96.9954 263.1208 15.08841436107261,6917.876,95.437,540.776,538.706,0.0
53567.0,STARLINK-4585,PAYLOAD,2024-07-27 05:24:33,15.08846697,0.0001326,53.2158,184.9204,97.4454,262.6689,5.8467e-06,-1.95e-06,0.0,0 STARLINK-4585,1 53567U 22101AS  24209.22539337 -.00000195  00000-0  58467-5 0  9994,2 53567  53.2158 184.9204 0001326  97.4454 262.6689 15.08846697107309,6917.86,95.437,540.642,538.808,0.0
53567.0,STARLINK-4585,PAYLOAD,2024-07-28 05:15:22,15.08829931,0.0001271,53.2166,180.4612,92.7691,267.3446,6.9437e-06,-1.77e-06,0.0,0 STARLINK-4585,1 53567U 22101AS  24210.21900740 -.00000177  00000-0  69437-5 0  9994,2 53567  53.2166 180.4612 0001271  92.7691 267.3446 15.08829931107453,6917.911,95.438,540.655,538.897,0.0
53567.0,STARLINK-4585,PAYLOAD,2024-07-28 22:44:36,15.08837949,0.0001295,53.2168,177.1903,92.6758,267.4382,2.3896e-05,9.2e-07,0.0,0 STARLINK-4585,1 53567U 22101AS  24210.94764525  .00000092  00000-0  23896-4 0  9996,2 53567  53.2168 177.1903 0001295  92.6758 267.4382 15.08837949107560,6917.887,95.438,540.648,538.856,0.0
53567.0,STARLINK-4585,PAYLOAD,2024-07-29 05:06:08,15.08844221,0.0001328,53.217,176.0014,94.0758,266.0386,7.5615e-05,9.16e-06,0.0,0 STARLINK-4585,1 53567U 22101AS  24211.21259982  .00000916  00000-0  75615-4 0  9994,2 53567  53.2170 176.0014 0001328  94.0758 266.0386 15.08844221107602,6917.867,95.437,540.651,538.814,0.0
53567.0,STARLINK-4585,PAYLOAD,2024-07-29 21:00:00,15.08836072,0.0001351,53.2173,173.0278,90.1422,269.9725,0.00010906,1.448e-05,0.0,0 STARLINK-4585,1 53567U 22101AS  24211.87500499  .00001448  00000-0  10906-3 0  9990,2 53567  53.2173 173.0278 0001351  90.1422 269.9725 15.08836072107700,6917.892,95.438,540.692,538.823,0.0
53567.0,STARLINK-4585,PAYLOAD,2024-07-30 14:29:14,15.08840037,0.0001462,53.2172,169.7552,80.0932,280.0225,7.743e-05,9.45e-06,0.0,0 STARLINK-4585,1 53567U 22101AS  24212.60364551  .00000945  00000-0  77430-4 0  9996,2 53567  53.2172 169.7552 0001462  80.0932 280.0225 15.08840037107810,6917.88,95.438,540.757,538.734,0.0
53567.0,STARLINK-4585,PAYLOAD,2024-07-31 04:47:42,15.08848882,0.0001369,53.2161,167.0787,84.3243,275.7905,4.9098e-05,4.94e-06,0.0,0 STARLINK-4585,1 53567U 22101AS  24213.19979991  .00000494  00000-0  49098-4 0  9999,2 53567  53.2161 167.0787 0001369  84.3243 275.7905 15.08848882107909,6917.853,95.437,540.665,538.771,0.0
53567.0,STARLINK-4585,PAYLOAD,2024-07-31 14:20:01,15.08841673,0.0001473,53.2175,165.2963,85.8709,274.2451,1.4122e-05,-6.3e-07,0.0,0 STARLINK-4585,1 53567U 22101AS  24213.59724453 -.00000063  00000-0  14122-4 0  9997,2 53567  53.2175 165.2963 0001473  85.8709 274.2451 15.08841673107966,6917.875,95.437,540.759,538.721,0.0
53567.0,STARLINK-4585,PAYLOAD,2024-07-31 20:41:34,15.08837631,0.0001626,53.217,164.1066,88.3605,271.7573,4.2594e-06,-2.2e-06,0.0,0 STARLINK-4585,1 53567U 22101AS  24213.86220821 -.00000220  00000-0  42594-5 0  9997,2 53567  53.2170 164.1066 0001626  88.3605 271.7573 15.08837631108008,6917.888,95.438,540.877,538.628,0.0
53567.0,STARLINK-4585,PAYLOAD,2024-08-01 14:10:48,15.08842783,0.0001494,53.2163,160.8339,94.5437,265.5726,4.1901e-05,3.79e-06,0.0,0 STARLINK-4585,1 53567U 22101AS  24214.59084244  .00000379  00000-0  41901-4 0  9999,2 53567  53.2163 160.8339 0001494  94.5437 265.5726 15.08842783108118,6917.872,95.437,540.77,538.703,0.0
53567.0,STARLINK-4585,PAYLOAD,2024-08-02 02:53:53,15.08848332,0.0001321,53.2161,158.4555,92.8593,267.2551,0.00012443,1.693e-05,0.0,0 STARLINK-4585,1 53567U 22101AS  24215.12075447  .00001693  00000-0  12443-3 0  9992,2 53567  53.2161 158.4555 0001321  92.8593 267.2551 15.08848332108191,6917.855,95.437,540.634,538.806,0.0
53567.0,STARLINK-4585,PAYLOAD,2024-08-02 06:04:39,15.08856495,0.0001459,53.2163,157.8595,94.3243,265.7916,9.46e-05,1.219e-05,0.0,0 STARLINK-4585,1 53567U 22101AS  24215.25323006  .00001219  00000-0  94600-4 0  9993,2 53567  53.2163 157.8595 0001459  94.3243 265.7916 15.08856495108211,6917.83,95.437,540.704,538.686,0.0
53567.0,STARLINK-4585,PAYLOAD,2024-08-02 20:23:09,15.08829216,0.0001718,53.2162,155.184,92.3674,267.7515,5.0716e-07,-2.8e-06,0.0,0 STARLINK-4585,1 53567U 22101AS  24215.84941266 -.00000280  00000-0  50716-6 0  9992,2 53567  53.2162 155.1840 0001718  92.3674 267.7515 15.08829216108306,6917.913,95.438,540.967,538.59,0.0
53567.0,STARLINK-4585,PAYLOAD,2024-08-03 05:55:28,15.08833885,0.0001364,53.2169,153.399,87.346,272.7688,-9.4499e-06,-4.38e-06,0.0,0 STARLINK-4585,1 53567U 22101AS  24216.24685305 -.00000438  00000-0 -94499-5 0  9997,2 53567  53.2169 153.3990 0001364  87.3460 272.7688 15.08833885108363,6917.899,95.438,540.708,538.82,0.0
53567.0,STARLINK-4585,PAYLOAD,2024-08-04 02:35:28,15.08844236,0.0001419,53.217,149.5341,81.4169,278.6984,0.00012315,1.673e-05,0.0,0 STARLINK-4585,1 53567U 22101AS  24217.10796707  .00001673  00000-0  12315-3 0  9997,2 53567  53.2170 149.5341 0001419  81.4169 278.6984 15.08844236108494,6917.867,95.437,540.714,538.751,0.0
53567.0,STARLINK-4585,PAYLOAD,2024-08-04 12:07:47,15.08844828,0.0001437,53.2169,147.7501,84.2602,275.8554,7.2934e-05,8.73e-06,0.0,0 STARLINK-4585,1 53567U 22101AS  24217.50540535  .00000873  00000-0  72934-4 0  9992,2 53567  53.2169 147.7501 0001437  84.2602 275.8554 15.08844828108559,6917.866,95.437,540.725,538.737,0.0
53567.0,STARLINK-4585,PAYLOAD,2024-08-05 02:26:15,15.0884509,7.61e-05,53.2163,145.075,83.522,276.5859,0.00022408,3.281e-05,0.0,0 STARLINK-4585,1 53567U 22101AS  24218.10156662  .00003281  00000-0  22408-3 0  9999,2 53567  53.2163 145.0750 0000761  83.5220 276.5859 15.08845090108645,6917.865,95.437,540.256,539.203,0.0
53567.0,STARLINK-4585,PAYLOAD,2024-08-05 23:06:17,15.08812914,0.0001231,53.2155,141.2081,75.8224,284.2905,-0.00053865,-8.844e-05,0.0,0 STARLINK-4585,1 53567U 22101AS  24218.96270176 -.00008844  00000-0 -53865-3 0  9993,2 53567  53.2155 141.2081 0001231  75.8224 284.2905 15.08812914108773,6917.963,95.439,540.68,538.977,0.0
53567.0,STARLINK-4585,PAYLOAD,2024-08-06 03:52:26,15.08819453,0.0001638,53.2177,140.3189,84.4074,275.7105,-0.00024717,-4.217e-05,0.0,0 STARLINK-4585,1 53567U 22101AS  24219.16142280 -.00004217  00000-0 -24717-3 0  9994,2 53567  53.2177 140.3189 0001638  84.4074 275.7105 15.08819453108802,6917.943,95.439,540.941,538.675,0.0
53567.0,STARLINK-4585,PAYLOAD,2024-08-06 11:49:22,15.08831385,0.0001529,53.2173,138.8315,87.8575,272.2592,0.00021759,3.176e-05,0.0,0 STARLINK-4585,1 53567U 22101AS  24219.49262335  .00003176  00000-0  21759-3 0  9998,2 53567  53.2173 138.8315 0001529  87.8575 272.2592 15.08831385108858,6917.907,95.438,540.829,538.714,0.0
53567.0,STARLINK-4585,PAYLOAD,2024-08-07 02:07:50,15.0887609,0.0001343,53.216,136.1557,88.3018,271.8128,0.0020853,0.00033089,0.0,0 STARLINK-4585,1 53567U 22101AS  24220.08877972  .00033089  00000-0  20853-2 0  9993,2 53567  53.2160 136.1557 0001343  88.3018 271.8128 15.08876090108947,6917.77,95.435,540.564,538.706,0.0
53567.0,STARLINK-4585,PAYLOAD,2024-08-08 08:20:09,15.08895259,0.0001311,53.2154,130.5037,106.4137,253.6999,0.0024554,0.00039066,0.0,0 STARLINK-4585,1 53567U 22101AS  24221.34733080  .00039066  00000-0  24554-2 0  9997,2 53567  53.2154 130.5037 0001311 106.4137 253.6999 15.08895259109134,6917.711,95.434,540.483,538.67,0.0
53567.0,STARLINK-4585,PAYLOAD,2024-08-08 22:38:38,15.08849066,0.0001989,53.2162,127.8285,63.0354,297.0841,0.0018581,0.00029415,0.0,0 STARLINK-4585,1 53567U 22101AS  24221.94349680  .00029415  00000-0  18581-2 0  9992,2 53567  53.2162 127.8285 0001989  63.0354 297.0841 15.08849066109220,6917.853,95.437,541.094,538.342,0.0
53567.0,STARLINK-4585,PAYLOAD,2024-08-09 00:14:01,15.08847479,0.0003025,53.2161,127.5343,45.0415,315.0822,0.0012957,0.00020398,0.0,0 STARLINK-4585,1 53567U 22101AS  24222.00973988  .00020398  00000-0  12957-2 0  9996,2 53567  53.2161 127.5343 0003025  45.0415 315.0822 15.08847479109239,6917.858,95.437,541.815,537.63,0.0
53567.0,STARLINK-4585,PAYLOAD,2024-08-09 11:21:43,15.08853014,0.0002976,53.2152,125.4555,46.4857,313.6382,0.00072562,0.00011283,0.0,0 STARLINK-4585,1 53567U 22101AS  24222.47341694  .00011283  00000-0  72562-3 0  9992,2 53567  53.2152 125.4555 0002976  46.4857 313.6382 15.08853014109305,6917.841,95.437,541.764,537.647,0.0
53567.0,STARLINK-4585,PAYLOAD,2024-08-09 17:43:15,15.0884226,0.0001874,53.2176,124.2567,110.3427,249.7766,0.00044346,6.777e-05,0.0,0 STARLINK-4585,1 53567U 22101AS  24222.73837462  .00006777  00000-0  44346-3 0  9995,2 53567  53.2176 124.2567 0001874 110.3427 249.7766 15.08842260109341,6917.873,95.437,541.035,538.442,0.0
